{
  "type": "FeatureCollection",
  "features": [
    {
      "type": "Feature",
      "properties": {
        "norad_id": 66564,
        "name": "STARLINK-35358",
        "group": "last-30-days",
        "lat": -15.42906099874516,
        "lon": 140.7018442122864,
        "alt_km": 380.9558283478009,
        "timestamp": "2025-12-06T11:28:09.786850+00:00",
        "meta_object_name": "STARLINK-35358",
        "meta_object_id": "2025-268H",
        "meta_epoch": "2025-12-05T22:00:03.000096",
        "meta_mean_motion": 15.64958505,
        "meta_eccentricity": 0.00017275,
        "meta_inclination": 42.9999,
        "meta_ra_of_asc_node": 161.2788,
        "meta_arg_of_pericenter": 278.8661,
        "meta_mean_anomaly": 135.1576,
        "meta_ephemeris_type": 0,
        "meta_classification_type": "U",
        "meta_norad_cat_id": 66564,
        "meta_element_set_no": 999,
        "meta_rev_at_epoch": 352,
        "meta_bstar": -0.021871746,
        "meta_mean_motion_dot": -0.01947537,
        "meta_mean_motion_ddot": 0,
        "tle_line1": "1 66564U 25268H   25339.91670139 -.01947537  00000+0 -21872-1 0  9996",
        "tle_line2": "2 66564  42.9999 161.2788 0001727 278.8661 135.1576 15.64958505  3525"
      },
      "geometry": {
        "type": "Point",
        "coordinates": [
          140.7018442122864,
          -15.42906099874516
        ]
      }
    },
    {
      "type": "Feature",
      "properties": {
        "norad_id": 66565,
        "name": "STARLINK-35893",
        "group": "last-30-days",
        "lat": -14.17657655581974,
        "lon": 142.1965198731169,
        "alt_km": 380.891005686708,
        "timestamp": "2025-12-06T11:28:09.786862+00:00",
        "meta_object_name": "STARLINK-35893",
        "meta_object_id": "2025-268J",
        "meta_epoch": "2025-12-05T22:00:03.000096",
        "meta_mean_motion": 15.64960011,
        "meta_eccentricity": 0.00017032,
        "meta_inclination": 42.9999,
        "meta_ra_of_asc_node": 161.2738,
        "meta_arg_of_pericenter": 278.7873,
        "meta_mean_anomaly": 137.1533,
        "meta_ephemeris_type": 0,
        "meta_classification_type": "U",
        "meta_norad_cat_id": 66565,
        "meta_element_set_no": 999,
        "meta_rev_at_epoch": 357,
        "meta_bstar": -0.021902051,
        "meta_mean_motion_dot": -0.01950002,
        "meta_mean_motion_ddot": 0,
        "tle_line1": "1 66565U 25268J   25339.91670139 -.01950002  00000+0 -21902-1 0  9992",
        "tle_line2": "2 66565  42.9999 161.2738 0001703 278.7873 137.1533 15.64960011  3574"
      },
      "geometry": {
        "type": "Point",
        "coordinates": [
          142.1965198731169,
          -14.17657655581974
        ]
      }
    },
    {
      "type": "Feature",
      "properties": {
        "norad_id": 66566,
        "name": "STARLINK-35871",
        "group": "last-30-days",
        "lat": -12.914630081186699,
        "lon": 143.67494060586927,
        "alt_km": 380.8127241182492,
        "timestamp": "2025-12-06T11:28:09.786872+00:00",
        "meta_object_name": "STARLINK-35871",
        "meta_object_id": "2025-268K",
        "meta_epoch": "2025-12-05T22:00:03.000096",
        "meta_mean_motion": 15.64959358,
        "meta_eccentricity": 0.00017106,
        "meta_inclination": 42.9997,
        "meta_ra_of_asc_node": 161.2689,
        "meta_arg_of_pericenter": 278.6052,
        "meta_mean_anomaly": 139.2544,
        "meta_ephemeris_type": 0,
        "meta_classification_type": "U",
        "meta_norad_cat_id": 66566,
        "meta_element_set_no": 999,
        "meta_rev_at_epoch": 357,
        "meta_bstar": -0.021913933,
        "meta_mean_motion_dot": -0.01950896,
        "meta_mean_motion_ddot": 0,
        "tle_line1": "1 66566U 25268K   25339.91670139 -.01950896  00000+0 -21914-1 0  9997",
        "tle_line2": "2 66566  42.9997 161.2689 0001710 278.6052 139.2544 15.64959358  3571"
      },
      "geometry": {
        "type": "Point",
        "coordinates": [
          143.67494060586927,
          -12.914630081186699
        ]
      }
    },
    {
      "type": "Feature",
      "properties": {
        "norad_id": 66567,
        "name": "STARLINK-35825",
        "group": "last-30-days",
        "lat": -11.64385191256091,
        "lon": 145.13924761917275,
        "alt_km": 380.69446018768485,
        "timestamp": "2025-12-06T11:28:09.786884+00:00",
        "meta_object_name": "STARLINK-35825",
        "meta_object_id": "2025-268L",
        "meta_epoch": "2025-12-05T22:00:03.000096",
        "meta_mean_motion": 15.64958914,
        "meta_eccentricity": 0.00017317,
        "meta_inclination": 42.9997,
        "meta_ra_of_asc_node": 161.2641,
        "meta_arg_of_pericenter": 279.2158,
        "meta_mean_anomaly": 140.5599,
        "meta_ephemeris_type": 0,
        "meta_classification_type": "U",
        "meta_norad_cat_id": 66567,
        "meta_element_set_no": 999,
        "meta_rev_at_epoch": 357,
        "meta_bstar": -0.021894251,
        "meta_mean_motion_dot": -0.01949336,
        "meta_mean_motion_ddot": 0,
        "tle_line1": "1 66567U 25268L   25339.91670139 -.01949336  00000+0 -21894-1 0  9992",
        "tle_line2": "2 66567  42.9997 161.2641 0001731 279.2158 140.5599 15.64958914  3579"
      },
      "geometry": {
        "type": "Point",
        "coordinates": [
          145.13924761917275,
          -11.64385191256091
        ]
      }
    },
    {
      "type": "Feature",
      "properties": {
        "norad_id": 66568,
        "name": "STARLINK-35803",
        "group": "last-30-days",
        "lat": -10.366105855217997,
        "lon": 146.588988278863,
        "alt_km": 380.5761945265822,
        "timestamp": "2025-12-06T11:28:09.786894+00:00",
        "meta_object_name": "STARLINK-35803",
        "meta_object_id": "2025-268M",
        "meta_epoch": "2025-12-05T22:00:03.000096",
        "meta_mean_motion": 15.64957126,
        "meta_eccentricity": 0.00016808,
        "meta_inclination": 42.9997,
        "meta_ra_of_asc_node": 161.2586,
        "meta_arg_of_pericenter": 280.7195,
        "meta_mean_anomaly": 140.9745,
        "meta_ephemeris_type": 0,
        "meta_classification_type": "U",
        "meta_norad_cat_id": 66568,
        "meta_element_set_no": 999,
        "meta_rev_at_epoch": 357,
        "meta_bstar": -0.021867723,
        "meta_mean_motion_dot": -0.01947091,
        "meta_mean_motion_ddot": 0,
        "tle_line1": "1 66568U 25268M   25339.91670139 -.01947091  00000+0 -21868-1 0  9990",
        "tle_line2": "2 66568  42.9997 161.2586 0001680 280.7195 140.9745 15.64957126  3570"
      },
      "geometry": {
        "type": "Point",
        "coordinates": [
          146.588988278863,
          -10.366105855217997
        ]
      }
    },
    {
      "type": "Feature",
      "properties": {
        "norad_id": 66569,
        "name": "STARLINK-35835",
        "group": "last-30-days",
        "lat": -9.08060327972096,
        "lon": 148.02904085794796,
        "alt_km": 380.4861368740658,
        "timestamp": "2025-12-06T11:28:09.786908+00:00",
        "meta_object_name": "STARLINK-35835",
        "meta_object_id": "2025-268N",
        "meta_epoch": "2025-12-05T22:00:03.000096",
        "meta_mean_motion": 15.64956935,
        "meta_eccentricity": 0.00016791,
        "meta_inclination": 42.9996,
        "meta_ra_of_asc_node": 161.2539,
        "meta_arg_of_pericenter": 280.1081,
        "meta_mean_anomaly": 143.5013,
        "meta_ephemeris_type": 0,
        "meta_classification_type": "U",
        "meta_norad_cat_id": 66569,
        "meta_element_set_no": 999,
        "meta_rev_at_epoch": 357,
        "meta_bstar": -0.021837419,
        "meta_mean_motion_dot": -0.01944696,
        "meta_mean_motion_ddot": 0,
        "tle_line1": "1 66569U 25268N   25339.91670139 -.01944696  00000+0 -21837-1 0  9995",
        "tle_line2": "2 66569  42.9996 161.2539 0001679 280.1081 143.5013 15.64956935  3578"
      },
      "geometry": {
        "type": "Point",
        "coordinates": [
          148.02904085794796,
          -9.08060327972096
        ]
      }
    },
    {
      "type": "Feature",
      "properties": {
        "norad_id": 66570,
        "name": "STARLINK-35834",
        "group": "last-30-days",
        "lat": -7.791435648150969,
        "lon": 149.4564517727325,
        "alt_km": 380.48386911563284,
        "timestamp": "2025-12-06T11:28:09.786937+00:00",
        "meta_object_name": "STARLINK-35834",
        "meta_object_id": "2025-268P",
        "meta_epoch": "2025-12-05T22:00:03.000096",
        "meta_mean_motion": 15.64962728,
        "meta_eccentricity": 0.00015383,
        "meta_inclination": 42.9997,
        "meta_ra_of_asc_node": 161.249,
        "meta_arg_of_pericenter": 278.4748,
        "meta_mean_anomaly": 147.0495,
        "meta_ephemeris_type": 0,
        "meta_classification_type": "U",
        "meta_norad_cat_id": 66570,
        "meta_element_set_no": 999,
        "meta_rev_at_epoch": 357,
        "meta_bstar": -0.021923957,
        "meta_mean_motion_dot": -0.01951786,
        "meta_mean_motion_ddot": 0,
        "tle_line1": "1 66570U 25268P   25339.91670139 -.01951786  00000+0 -21924-1 0  9992",
        "tle_line2": "2 66570  42.9997 161.2490 0001538 278.4748 147.0495 15.64962728  3571"
      },
      "geometry": {
        "type": "Point",
        "coordinates": [
          149.4564517727325,
          -7.791435648150969
        ]
      }
    }
  ]
}